CTC2_L_00288001-01
1 17310U 23741IH  26037.47793981  .00000000  00000+0  00000-0 0  9994
2 17310  50.0000   0.0000 0000000   0.0000   0.0000 13.81096363    10
CTC2_L_00288001-02
1 17311U 22107HQ  26037.47793981  .00000000  00000+0  00000-0 0  9990
2 17311  50.0000   0.0000 0000000   0.0000  90.0000 13.81096363    10
CTC2_L_00288001-03
1 17312U 26437OE  26037.47793981  .00000000  00000+0  00000-0 0  9991
2 17312  50.0000   0.0000 0000000   0.0000 180.0000 13.81096363    11
CTC2_L_00288001-04
1 17313U 26654XB  26037.47793981  .00000000  00000+0  00000-0 0  9993
2 17313  50.0000   0.0000 0000000   0.0000 270.0000 13.81096363    12
CTC2_L_00288002-01
1 17314U 26653NM  26037.47793981  .00000000  00000+0  00000-0 0  9993
2 17314  50.0000  12.0000 0000000   0.0000  12.0000 13.81096363    10
CTC2_L_00288002-02
1 17315U 26067SA  26037.47793981  .00000000  00000+0  00000-0 0  9993
2 17315  50.0000  12.0000 0000000   0.0000 102.0000 13.81096363    11
CTC2_L_00288002-03
1 17316U 26949XG  26037.47793981  .00000000  00000+0  00000-0 0  9993
2 17316  50.0000  12.0000 0000000   0.0000 192.0000 13.81096363    11
CTC2_L_00288002-04
1 17317U 26728ON  26037.47793981  .00000000  00000+0  00000-0 0  9999
2 17317  50.0000  12.0000 0000000   0.0000 282.0000 13.81096363    12
CTC2_L_00288003-01
1 17318U 23910EA  26037.47793981  .00000000  00000+0  00000-0 0  9990
2 17318  50.0000  24.0000 0000000   0.0000  24.0000 13.81096363    10
CTC2_L_00288003-02
1 17319U 25360QU  26037.47793981  .00000000  00000+0  00000-0 0  9992
2 17319  50.0000  24.0000 0000000   0.0000 114.0000 13.81096363    11
CTC2_L_00288003-03
1 17320U 26483QS  26037.47793981  .00000000  00000+0  00000-0 0  9991
2 17320  50.0000  24.0000 0000000   0.0000 204.0000 13.81096363    13
CTC2_L_00288003-04
1 17321U 22138VY  26037.47793981  .00000000  00000+0  00000-0 0  9995
2 17321  50.0000  24.0000 0000000   0.0000 294.0000 13.81096363    13
CTC2_L_00288004-01
1 17322U 24322BI  26037.47793981  .00000000  00000+0  00000-0 0  9993
2 17322  50.0000  36.0000 0000000   0.0000  36.0000 13.81096363    11
CTC2_L_00288004-02
1 17323U 22380XB  26037.47793981  .00000000  00000+0  00000-0 0  9996
2 17323  50.0000  36.0000 0000000   0.0000 126.0000 13.81096363    12
CTC2_L_00288004-03
1 17324U 25157YR  26037.47793981  .00000000  00000+0  00000-0 0  9992
2 17324  50.0000  36.0000 0000000   0.0000 216.0000 13.81096363    13
CTC2_L_00288004-04
1 17325U 22726AX  26037.47793981  .00000000  00000+0  00000-0 0  9992
2 17325  50.0000  36.0000 0000000   0.0000 306.0000 13.81096363    14
CTC2_L_00288005-01
1 17326U 26727AZ  26037.47793981  .00000000  00000+0  00000-0 0  9998
2 17326  50.0000  48.0000 0000000   0.0000  48.0000 13.81096363    11
CTC2_L_00288005-02
1 17327U 22133XI  26037.47793981  .00000000  00000+0  00000-0 0  9996
2 17327  50.0000  48.0000 0000000   0.0000 138.0000 13.81096363    12
CTC2_L_00288005-03
1 17328U 24827MM  26037.47793981  .00000000  00000+0  00000-0 0  9999
2 17328  50.0000  48.0000 0000000   0.0000 228.0000 13.81096363    13
CTC2_L_00288005-04
1 17329U 26290VB  26037.47793981  .00000000  00000+0  00000-0 0  9996
2 17329  50.0000  48.0000 0000000   0.0000 318.0000 13.81096363    14
CTC2_L_00288006-01
1 17330U 23953LE  26037.47793981  .00000000  00000+0  00000-0 0  9991
2 17330  50.0000  60.0000 0000000   0.0000  60.0000 13.81096363    14
CTC2_L_00288006-02
1 17331U 26406OZ  26037.47793981  .00000000  00000+0  00000-0 0  9998
2 17331  50.0000  60.0000 0000000   0.0000 150.0000 13.81096363    15
CTC2_L_00288006-03
1 17332U 25633DG  26037.47793981  .00000000  00000+0  00000-0 0  9990
2 17332  50.0000  60.0000 0000000   0.0000 240.0000 13.81096363    16
CTC2_L_00288006-04
1 17333U 23610WH  26037.47793981  .00000000  00000+0  00000-0 0  9994
2 17333  50.0000  60.0000 0000000   0.0000 330.0000 13.81096363    17
CTC2_L_00288007-01
1 17334U 25529HW  26037.47793981  .00000000  00000+0  00000-0 0  9996
2 17334  50.0000  72.0000 0000000   0.0000  72.0000 13.81096363    14
CTC2_L_00288007-02
1 17335U 22638R   26037.47793981  .00000000  00000+0  00000-0 0  9995
2 17335  50.0000  72.0000 0000000   0.0000 162.0000 13.81096363    15
CTC2_L_00288007-03
1 17336U 24909MF  26037.47793981  .00000000  00000+0  00000-0 0  9999
2 17336  50.0000  72.0000 0000000   0.0000 252.0000 13.81096363    16
CTC2_L_00288007-04
1 17337U 25312BA  26037.47793981  .00000000  00000+0  00000-0 0  9999
2 17337  50.0000  72.0000 0000000   0.0000 342.0000 13.81096363    17
CTC2_L_00288008-01
1 17338U 26593GU  26037.47793981  .00000000  00000+0  00000-0 0  9992
2 17338  50.0000  84.0000 0000000   0.0000  84.0000 13.81096363    14
CTC2_L_00288008-02
1 17339U 26518QV  26037.47793981  .00000000  00000+0  00000-0 0  9990
2 17339  50.0000  84.0000 0000000   0.0000 174.0000 13.81096363    15
CTC2_L_00288008-03
1 17340U 26936UD  26037.47793981  .00000000  00000+0  00000-0 0  9996
2 17340  50.0000  84.0000 0000000   0.0000 264.0000 13.81096363    17
CTC2_L_00288008-04
1 17341U 25120GL  26037.47793981  .00000000  00000+0  00000-0 0  9991
2 17341  50.0000  84.0000 0000000   0.0000 354.0000 13.81096363    18
CTC2_L_00288009-01
1 17342U 25384SI  26037.47793981  .00000000  00000+0  00000-0 0  9994
2 17342  50.0000  96.0000 0000000   0.0000  96.0000 13.81096363    15
CTC2_L_00288009-02
1 17343U 24342PI  26037.47793981  .00000000  00000+0  00000-0 0  9998
2 17343  50.0000  96.0000 0000000   0.0000 186.0000 13.81096363    16
CTC2_L_00288009-03
1 17344U 23998M   26037.47793981  .00000000  00000+0  00000-0 0  9995
2 17344  50.0000  96.0000 0000000   0.0000 276.0000 13.81096363    17
CTC2_L_00288009-04
1 17345U 23592LM  26037.47793981  .00000000  00000+0  00000-0 0  9996
2 17345  50.0000  96.0000 0000000   0.0000   6.0000 13.81096363    19
CTC2_L_00288010-01
1 17346U 24630Q   26037.47793981  .00000000  00000+0  00000-0 0  9991
2 17346  50.0000 108.0000 0000000   0.0000 108.0000 13.81096363    17
CTC2_L_00288010-02
1 17347U 22175YR  26037.47793981  .00000000  00000+0  00000-0 0  9994
2 17347  50.0000 108.0000 0000000   0.0000 198.0000 13.81096363    17
CTC2_L_00288010-03
1 17348U 22950VK  26037.47793981  .00000000  00000+0  00000-0 0  9996
2 17348  50.0000 108.0000 0000000   0.0000 288.0000 13.81096363    18
CTC2_L_00288010-04
1 17349U 25547UT  26037.47793981  .00000000  00000+0  00000-0 0  9992
2 17349  50.0000 108.0000 0000000   0.0000  18.0000 13.81096363    10
CTC2_L_00288011-01
1 17350U 24542TA  26037.47793981  .00000000  00000+0  00000-0 0  9998
2 17350  50.0000 120.0000 0000000   0.0000 120.0000 13.81096363    10
CTC2_L_00288011-02
1 17351U 26959DM  26037.47793981  .00000000  00000+0  00000-0 0  9993
2 17351  50.0000 120.0000 0000000   0.0000 210.0000 13.81096363    11
CTC2_L_00288011-03
1 17352U 23473HY  26037.47793981  .00000000  00000+0  00000-0 0  9992
2 17352  50.0000 120.0000 0000000   0.0000 300.0000 13.81096363    12
CTC2_L_00288011-04
1 17353U 23778FG  26037.47793981  .00000000  00000+0  00000-0 0  9991
2 17353  50.0000 120.0000 0000000   0.0000  30.0000 13.81096363    13
CTC2_L_00288012-01
1 17354U 25886LL  26037.47793981  .00000000  00000+0  00000-0 0  9994
2 17354  50.0000 132.0000 0000000   0.0000 132.0000 13.81096363    10
CTC2_L_00288012-02
1 17355U 26988NT  26037.47793981  .00000000  00000+0  00000-0 0  9999
2 17355  50.0000 132.0000 0000000   0.0000 222.0000 13.81096363    11
CTC2_L_00288012-03
1 17356U 23828RS  26037.47793981  .00000000  00000+0  00000-0 0  9990
2 17356  50.0000 132.0000 0000000   0.0000 312.0000 13.81096363    12
CTC2_L_00288012-04
1 17357U 23556HD  26037.47793981  .00000000  00000+0  00000-0 0  9999
2 17357  50.0000 132.0000 0000000   0.0000  42.0000 13.81096363    13
CTC2_L_00288013-01
1 17358U 22721QM  26037.47793981  .00000000  00000+0  00000-0 0  9993
2 17358  50.0000 144.0000 0000000   0.0000 144.0000 13.81096363    10
CTC2_L_00288013-02
1 17359U 22497QD  26037.47793981  .00000000  00000+0  00000-0 0  9994
2 17359  50.0000 144.0000 0000000   0.0000 234.0000 13.81096363    11
CTC2_L_00288013-03
1 17360U 26404NO  26037.47793981  .00000000  00000+0  00000-0 0  9998
2 17360  50.0000 144.0000 0000000   0.0000 324.0000 13.81096363    13
CTC2_L_00288013-04
1 17361U 26779AX  26037.47793981  .00000000  00000+0  00000-0 0  9994
2 17361  50.0000 144.0000 0000000   0.0000  54.0000 13.81096363    14
CTC2_L_00288014-01
1 17362U 24635FG  26037.47793981  .00000000  00000+0  00000-0 0  9994
2 17362  50.0000 156.0000 0000000   0.0000 156.0000 13.81096363    11
CTC2_L_00288014-02
1 17363U 26327AS  26037.47793981  .00000000  00000+0  00000-0 0  9995
2 17363  50.0000 156.0000 0000000   0.0000 246.0000 13.81096363    12
CTC2_L_00288014-03
1 17364U 25573MW  26037.47793981  .00000000  00000+0  00000-0 0  9998
2 17364  50.0000 156.0000 0000000   0.0000 336.0000 13.81096363    13
CTC2_L_00288014-04
1 17365U 22063NV  26037.47793981  .00000000  00000+0  00000-0 0  9990
2 17365  50.0000 156.0000 0000000   0.0000  66.0000 13.81096363    14
CTC2_L_00288015-01
1 17366U 26056BL  26037.47793981  .00000000  00000+0  00000-0 0  9997
2 17366  50.0000 168.0000 0000000   0.0000 168.0000 13.81096363    11
CTC2_L_00288015-02
1 17367U 26703AN  26037.47793981  .00000000  00000+0  00000-0 0  9997
2 17367  50.0000 168.0000 0000000   0.0000 258.0000 13.81096363    12
CTC2_L_00288015-03
1 17368U 24188CX  26037.47793981  .00000000  00000+0  00000-0 0  9993
2 17368  50.0000 168.0000 0000000   0.0000 348.0000 13.81096363    13
CTC2_L_00288015-04
1 17369U 24698CP  26037.47793981  .00000000  00000+0  00000-0 0  9990
2 17369  50.0000 168.0000 0000000   0.0000  78.0000 13.81096363    14
CTC2_L_00288016-01
1 17370U 25615FU  26037.47793981  .00000000  00000+0  00000-0 0  9992
2 17370  50.0000 180.0000 0000000   0.0000 180.0000 13.81096363    14
CTC2_L_00288016-02
1 17371U 25951DE  26037.47793981  .00000000  00000+0  00000-0 0  9996
2 17371  50.0000 180.0000 0000000   0.0000 270.0000 13.81096363    15
